TANSTAAFL-2             
1 62378U 24247B   26067.20753490  .00013897  00000+0  50872-3 0  9998
2 62378  44.9880 125.0934 0003072 298.8909  61.1666 15.28016845 67506
STARLINK-36511          
1 67451U 26008G   26068.39687263  .00028197  00000+0  10298-2 0  9993
2 67451  43.0004 207.2129 0003175 282.3495  77.7001 15.27593687  9529
